IRIDIUM 921 [-]         
1 24873U 97034E   23352.47539948  .00018432  00000+0  65326-3 0  9993
2 24873  86.3861  17.2421 0003736 183.7835 176.3386 15.28979719447613
IRIDIUM 26 [-]          
1 24903U 97043A   23352.07289263  .00000633  00000+0  21092-3 0  9991
2 24903  86.3955 340.1804 0002462  92.2405 267.9074 14.36119844378668
IRIDIUM 22 [-]          
1 24907U 97043E   23352.47653237  .00000519  00000+0  17547-3 0  9998
2 24907  86.3960 343.1031 0002185  91.0086 269.1361 14.35023289378330
DUMMY MASS 1 [-]        
1 24925U 97048A   23352.18697451  .00000502  00000+0  54318-4 0  9997
2 24925  86.3350  28.0537 0004543 291.9638  68.1103 14.85965245424118
DUMMY MASS 2 [-]        
1 24926U 97048B   23351.65532842  .00000470  00000+0  50918-4 0  9997
2 24926  86.3350  29.8100 0005646 308.8054  51.2665 14.85725419423582
IRIDIUM 29 [-]          
1 24944U 97051A   23352.46720718  .00000514  00000+0  17194-3 0  9999
2 24944  86.3961  13.0614 0001970  95.1532 264.9889 14.35481075375037
IRIDIUM 33 [-]          
1 24946U 97051C   23351.56028456  .00000299  00000+0  99733-4 0  9991
2 24946  86.3876  12.7095 0009915  71.0867 289.1403 14.34200442374232
IRIDIUM 28 [-]          
1 24948U 97051E   23351.61563378  .00000430  00000+0  14013-3 0  9990
2 24948  86.3966  11.2493 0002623  89.8160 270.3337 14.36421669375284
